ONEWEB-0228             
1 48780U 21045P   23213.72190976 -.00000020  00000+0 -86188-4 0  9999
2 48780  87.9006 108.3724 0001721  79.0847 281.0477 13.15551653107349
